{
  "type": "FeatureCollection",
  "features": [
    {
      "type": "Feature",
      "properties": {
        "norad_id": 30326,
        "name": "FENGYUN 1C DEB",
        "group": "fengyun-1c-debris",
        "lat": -77.16315947434335,
        "lon": 13.005411912168368,
        "alt_km": 1014.3607318849399,
        "timestamp": "2025-12-13T16:48:32.985838+00:00",
        "meta_object_name": "FENGYUN 1C DEB",
        "meta_object_id": "1999-025AAM",
        "meta_epoch": "2025-12-12T22:13:16.639392",
        "meta_mean_motion": 13.85475219,
        "meta_eccentricity": 0.01423756,
        "meta_inclination": 98.6541,
        "meta_ra_of_asc_node": 234.2293,
        "meta_arg_of_pericenter": 30.064,
        "meta_mean_anomaly": 330.8596,
        "meta_ephemeris_type": 0,
        "meta_classification_type": "U",
        "meta_norad_cat_id": 30326,
        "meta_element_set_no": 999,
        "meta_rev_at_epoch": 95458,
        "meta_bstar": 0.00027979549,
        "meta_mean_motion_dot": 3.06e-06,
        "meta_mean_motion_ddot": 0,
        "tle_line1": "1 30326U 99025AAM 25346.92588703  .00000306  00000+0  27980-3 0  9998",
        "tle_line2": "2 30326  98.6541 234.2293 0142375  30.0640 330.8596 13.85475219954589"
      },
      "geometry": {
        "type": "Point",
        "coordinates": [
          13.005411912168368,
          -77.16315947434335
        ]
      }
    },
    {
      "type": "Feature",
      "properties": {
        "norad_id": 30327,
        "name": "FENGYUN 1C DEB",
        "group": "fengyun-1c-debris",
        "lat": -65.36841221009139,
        "lon": 43.059937736938885,
        "alt_km": 862.6621397953068,
        "timestamp": "2025-12-13T16:48:32.985848+00:00",
        "meta_object_name": "FENGYUN 1C DEB",
        "meta_object_id": "1999-025AAN",
        "meta_epoch": "2025-12-12T22:47:54.119616",
        "meta_mean_motion": 14.17987747,
        "meta_eccentricity": 0.01169916,
        "meta_inclination": 98.4441,
        "meta_ra_of_asc_node": 241.2501,
        "meta_arg_of_pericenter": 142.2084,
        "meta_mean_anomaly": 234.5289,
        "meta_ephemeris_type": 0,
        "meta_classification_type": "U",
        "meta_norad_cat_id": 30327,
        "meta_element_set_no": 999,
        "meta_rev_at_epoch": 96446,
        "meta_bstar": 0.0024043445,
        "meta_mean_motion_dot": 5.229e-05,
        "meta_mean_motion_ddot": 0,
        "tle_line1": "1 30327U 99025AAN 25346.94993194  .00005229  00000+0  24043-2 0  9990",
        "tle_line2": "2 30327  98.4441 241.2501 0116991 142.2084 234.5289 14.17987747964467"
      },
      "geometry": {
        "type": "Point",
        "coordinates": [
          43.059937736938885,
          -65.36841221009139
        ]
      }
    },
    {
      "type": "Feature",
      "properties": {
        "norad_id": 30328,
        "name": "FENGYUN 1C DEB",
        "group": "fengyun-1c-debris",
        "lat": 21.354043473656606,
        "lon": -5.6350621617891905,
        "alt_km": 853.2788534257406,
        "timestamp": "2025-12-13T16:48:32.985858+00:00",
        "meta_object_name": "FENGYUN 1C DEB",
        "meta_object_id": "1999-025AAP",
        "meta_epoch": "2025-12-12T23:57:40.998816",
        "meta_mean_motion": 14.12473864,
        "meta_eccentricity": 0.0005776,
        "meta_inclination": 98.6865,
        "meta_ra_of_asc_node": 357.1111,
        "meta_arg_of_pericenter": 151.9708,
        "meta_mean_anomaly": 262.2424,
        "meta_ephemeris_type": 0,
        "meta_classification_type": "U",
        "meta_norad_cat_id": 30328,
        "meta_element_set_no": 999,
        "meta_rev_at_epoch": 97268,
        "meta_bstar": 0.00018558013,
        "meta_mean_motion_dot": 3e-06,
        "meta_mean_motion_ddot": 0,
        "tle_line1": "1 30328U 99025AAP 25346.99839119  .00000300  00000+0  18558-3 0  9992",
        "tle_line2": "2 30328  98.6865 357.1111 0005776 151.9708 262.2424 14.12473864972689"
      },
      "geometry": {
        "type": "Point",
        "coordinates": [
          -5.6350621617891905,
          21.354043473656606
        ]
      }
    },
    {
      "type": "Feature",
      "properties": {
        "norad_id": 30329,
        "name": "FENGYUN 1C DEB",
        "group": "fengyun-1c-debris",
        "lat": -15.287533484821976,
        "lon": -90.37962666807509,
        "alt_km": 874.597232327299,
        "timestamp": "2025-12-13T16:48:32.985868+00:00",
        "meta_object_name": "FENGYUN 1C DEB",
        "meta_object_id": "1999-025AAQ",
        "meta_epoch": "2025-12-12T18:39:12.786912",
        "meta_mean_motion": 13.86741496,
        "meta_eccentricity": 0.01423252,
        "meta_inclination": 99.2618,
        "meta_ra_of_asc_node": 266.1501,
        "meta_arg_of_pericenter": 35.4197,
        "meta_mean_anomaly": 24.2668,
        "meta_ephemeris_type": 0,
        "meta_classification_type": "U",
        "meta_norad_cat_id": 30329,
        "meta_element_set_no": 999,
        "meta_rev_at_epoch": 95411,
        "meta_bstar": 0.0006714765,
        "meta_mean_motion_dot": 8.03e-06,
        "meta_mean_motion_ddot": 0,
        "tle_line1": "1 30329U 99025AAQ 25346.77723133  .00000803  00000+0  67148-3 0  9994",
        "tle_line2": "2 30329  99.2618 266.1501 0142325  35.4197  24.2668 13.86741496954118"
      },
      "geometry": {
        "type": "Point",
        "coordinates": [
          -90.37962666807509,
          -15.287533484821976
        ]
      }
    },
    {
      "type": "Feature",
      "properties": {
        "norad_id": 30330,
        "name": "FENGYUN 1C DEB",
        "group": "fengyun-1c-debris",
        "lat": 4.4673178203578745,
        "lon": -20.698998518172935,
        "alt_km": 1096.333695579733,
        "timestamp": "2025-12-13T16:48:32.985878+00:00",
        "meta_object_name": "FENGYUN 1C DEB",
        "meta_object_id": "1999-025AAR",
        "meta_epoch": "2025-12-12T23:32:10.446144",
        "meta_mean_motion": 13.82060086,
        "meta_eccentricity": 0.01876071,
        "meta_inclination": 98.8864,
        "meta_ra_of_asc_node": 339.3226,
        "meta_arg_of_pericenter": 184.1415,
        "meta_mean_anomaly": 201.6853,
        "meta_ephemeris_type": 0,
        "meta_classification_type": "U",
        "meta_norad_cat_id": 30330,
        "meta_element_set_no": 999,
        "meta_rev_at_epoch": 94661,
        "meta_bstar": 0.0017763547,
        "meta_mean_motion_dot": 2.144e-05,
        "meta_mean_motion_ddot": 0,
        "tle_line1": "1 30330U 99025AAR 25346.98067646  .00002144  00000+0  17764-2 0  9997",
        "tle_line2": "2 30330  98.8864 339.3226 0187607 184.1415 201.6853 13.82060086946610"
      },
      "geometry": {
        "type": "Point",
        "coordinates": [
          -20.698998518172935,
          4.4673178203578745
        ]
      }
    },
    {
      "type": "Feature",
      "properties": {
        "norad_id": 30331,
        "name": "FENGYUN 1C DEB",
        "group": "fengyun-1c-debris",
        "lat": -70.29007495330728,
        "lon": 48.371584070581406,
        "alt_km": 892.9246472939276,
        "timestamp": "2025-12-13T16:48:32.985910+00:00",
        "meta_object_name": "FENGYUN 1C DEB",
        "meta_object_id": "1999-025AAS",
        "meta_epoch": "2025-12-12T14:23:01.903776",
        "meta_mean_motion": 13.97829446,
        "meta_eccentricity": 0.0096369,
        "meta_inclination": 98.9568,
        "meta_ra_of_asc_node": 21.1792,
        "meta_arg_of_pericenter": 8.3618,
        "meta_mean_anomaly": 142.7034,
        "meta_ephemeris_type": 0,
        "meta_classification_type": "U",
        "meta_norad_cat_id": 30331,
        "meta_element_set_no": 999,
        "meta_rev_at_epoch": 96117,
        "meta_bstar": 0.0005383543,
        "meta_mean_motion_dot": 7.49e-06,
        "meta_mean_motion_ddot": 0,
        "tle_line1": "1 30331U 99025AAS 25346.59932759  .00000749  00000+0  53835-3 0  9990",
        "tle_line2": "2 30331  98.9568  21.1792 0096369   8.3618 142.7034 13.97829446961176"
      },
      "geometry": {
        "type": "Point",
        "coordinates": [
          48.371584070581406,
          -70.29007495330728
        ]
      }
    },
    {
      "type": "Feature",
      "properties": {
        "norad_id": 30332,
        "name": "FENGYUN 1C DEB",
        "group": "fengyun-1c-debris",
        "lat": -58.02956907596932,
        "lon": 123.31189684178904,
        "alt_km": 1080.1954757737776,
        "timestamp": "2025-12-13T16:48:32.985934+00:00",
        "meta_object_name": "FENGYUN 1C DEB",
        "meta_object_id": "1999-025AAT",
        "meta_epoch": "2025-12-12T20:46:20.945280",
        "meta_mean_motion": 13.76709482,
        "meta_eccentricity": 0.01780803,
        "meta_inclination": 99.7152,
        "meta_ra_of_asc_node": 318.39,
        "meta_arg_of_pericenter": 102.6504,
        "meta_mean_anomaly": 319.7873,
        "meta_ephemeris_type": 0,
        "meta_classification_type": "U",
        "meta_norad_cat_id": 30332,
        "meta_element_set_no": 999,
        "meta_rev_at_epoch": 94717,
        "meta_bstar": 0.00057136126,
        "meta_mean_motion_dot": 5.85e-06,
        "meta_mean_motion_ddot": 0,
        "tle_line1": "1 30332U 99025AAT 25346.86552020  .00000585  00000+0  57136-3 0  9996",
        "tle_line2": "2 30332  99.7152 318.3900 0178080 102.6504 319.7873 13.76709482947175"
      },
      "geometry": {
        "type": "Point",
        "coordinates": [
          123.31189684178904,
          -58.02956907596932
        ]
      }
    }
  ]
}